YAOGAN-35 01A           
1 49390U 21101A   26068.78009532  .00012075  00000+0  47335-3 0  9995
2 49390  34.9903 183.8731 0005688 189.0601 171.0012 15.24952145241689
ASTROCAST-0401          
1 55110U 23001DF  26068.71172895  .00009750  00000+0  37868-3 0  9995
2 55110  97.5547 160.5206 0008142 188.4231 171.6872 15.26258462176022
